[{"OBJECT_NAME":"HAWK-8C","OBJECT_ID":"2024-066H","EPOCH":"2026-03-09T11:22:19.381152","MEAN_MOTION":14.98770227,"ECCENTRICITY":0.00039352,"INCLINATION":45.6068,"RA_OF_ASC_NODE":72.8656,"ARG_OF_PERICENTER":260.2975,"MEAN_ANOMALY":99.7462,"EPHEMERIS_TYPE":0,"CLASSIFICATION_TYPE":"U","NORAD_CAT_ID":59449,"ELEMENT_SET_NO":999,"REV_AT_EPOCH":10486,"BSTAR":0.00021518384,"MEAN_MOTION_DOT":2.4e-5,"MEAN_MOTION_DDOT":0},{"OBJECT_NAME":"STARLINK-34574","OBJECT_ID":"2025-142U","EPOCH":"2026-03-09T22:03:05.398272","MEAN_MOTION":14.98338304,"ECCENTRICITY":0.00023816,"INCLINATION":70.0008,"RA_OF_ASC_NODE":313.9339,"ARG_OF_PERICENTER":255.583,"MEAN_ANOMALY":104.5065,"EPHEMERIS_TYPE":0,"CLASSIFICATION_TYPE":"U","NORAD_CAT_ID":64714,"ELEMENT_SET_NO":999,"REV_AT_EPOCH":3952,"BSTAR":0.00047382667,"MEAN_MOTION_DOT":5.566e-5,"MEAN_MOTION_DDOT":0}]
